{
  "type": "FeatureCollection",
  "features": [
    {
      "type": "Feature",
      "properties": {
        "norad_id": 64694,
        "name": "GOSAT-GW (IBUKI GW)",
        "group": "resource",
        "lat": 41.497022732417555,
        "lon": 117.33925820810063,
        "alt_km": 664.9233319885707,
        "timestamp": "2025-12-20T18:51:31.375993+00:00",
        "meta_object_name": "GOSAT-GW (IBUKI GW)",
        "meta_object_id": "2025-141A",
        "meta_epoch": "2025-12-20T14:57:35.439840",
        "meta_mean_motion": 14.67565628,
        "meta_eccentricity": 0.0001465,
        "meta_inclination": 98.0435,
        "meta_ra_of_asc_node": 289.9935,
        "meta_arg_of_pericenter": 83.9607,
        "meta_mean_anomaly": 276.1765,
        "meta_ephemeris_type": 0,
        "meta_classification_type": "U",
        "meta_norad_cat_id": 64694,
        "meta_element_set_no": 999,
        "meta_rev_at_epoch": 2565,
        "meta_bstar": 9.7472999e-05,
        "meta_mean_motion_dot": 5.05e-06,
        "meta_mean_motion_ddot": 0,
        "tle_line1": "1 64694U 25141A   25354.62332685  .00000505  00000+0  97473-4 0  9999",
        "tle_line2": "2 64694  98.0435 289.9935 0001465  83.9607 276.1765 14.67565628 25656"
      },
      "geometry": {
        "type": "Point",
        "coordinates": [
          117.33925820810063,
          41.497022732417555
        ]
      }
    },
    {
      "type": "Feature",
      "properties": {
        "norad_id": 64876,
        "name": "IONOSFERA-M 3",
        "group": "resource",
        "lat": -65.23424278835596,
        "lon": 117.32392835859478,
        "alt_km": 829.0417155264549,
        "timestamp": "2025-12-20T18:51:31.376004+00:00",
        "meta_object_name": "IONOSFERA-M 3",
        "meta_object_id": "2025-155A",
        "meta_epoch": "2025-12-20T14:19:23.443104",
        "meta_mean_motion": 14.21442763,
        "meta_eccentricity": 0.00020159,
        "meta_inclination": 98.5793,
        "meta_ra_of_asc_node": 316.2408,
        "meta_arg_of_pericenter": 47.454,
        "meta_mean_anomaly": 312.6808,
        "meta_ephemeris_type": 0,
        "meta_classification_type": "U",
        "meta_norad_cat_id": 64876,
        "meta_element_set_no": 999,
        "meta_rev_at_epoch": 2103,
        "meta_bstar": 3.4804939e-05,
        "meta_mean_motion_dot": 3.3e-07,
        "meta_mean_motion_ddot": 0,
        "tle_line1": "1 64876U 25155A   25354.59679911  .00000033  00000+0  34805-4 0  9994",
        "tle_line2": "2 64876  98.5793 316.2408 0002015  47.4540 312.6808 14.21442763 21038"
      },
      "geometry": {
        "type": "Point",
        "coordinates": [
          117.32392835859478,
          -65.23424278835596
        ]
      }
    },
    {
      "type": "Feature",
      "properties": {
        "norad_id": 64877,
        "name": "IONOSFERA-M 4",
        "group": "resource",
        "lat": 65.80199051022949,
        "lon": -63.28548082863963,
        "alt_km": 813.0344415829986,
        "timestamp": "2025-12-20T18:51:31.376014+00:00",
        "meta_object_name": "IONOSFERA-M 4",
        "meta_object_id": "2025-155B",
        "meta_epoch": "2025-12-20T15:09:52.629696",
        "meta_mean_motion": 14.21443913,
        "meta_eccentricity": 0.00014139,
        "meta_inclination": 98.5792,
        "meta_ra_of_asc_node": 316.1943,
        "meta_arg_of_pericenter": 55.6941,
        "meta_mean_anomaly": 304.437,
        "meta_ephemeris_type": 0,
        "meta_classification_type": "U",
        "meta_norad_cat_id": 64877,
        "meta_element_set_no": 999,
        "meta_rev_at_epoch": 2103,
        "meta_bstar": 3.5588215e-05,
        "meta_mean_motion_dot": 3.5e-07,
        "meta_mean_motion_ddot": 0,
        "tle_line1": "1 64877U 25155B   25354.63185914  .00000035  00000+0  35588-4 0  9996",
        "tle_line2": "2 64877  98.5792 316.1943 0001413  55.6941 304.4370 14.21443913 21039"
      },
      "geometry": {
        "type": "Point",
        "coordinates": [
          -63.28548082863963,
          65.80199051022949
        ]
      }
    },
    {
      "type": "Feature",
      "properties": {
        "norad_id": 64899,
        "name": "MICROCARB",
        "group": "resource",
        "lat": -64.77047977946016,
        "lon": -127.36752956073414,
        "alt_km": 668.8224266850611,
        "timestamp": "2025-12-20T18:51:31.376025+00:00",
        "meta_object_name": "MICROCARB",
        "meta_object_id": "2025-156A",
        "meta_epoch": "2025-12-20T04:41:43.963008",
        "meta_mean_motion": 14.72068313,
        "meta_eccentricity": 0.00174928,
        "meta_inclination": 98.0018,
        "meta_ra_of_asc_node": 69.4214,
        "meta_arg_of_pericenter": 122.322,
        "meta_mean_anomaly": 237.9684,
        "meta_ephemeris_type": 0,
        "meta_classification_type": "U",
        "meta_norad_cat_id": 64899,
        "meta_element_set_no": 999,
        "meta_rev_at_epoch": 2163,
        "meta_bstar": 8.8540161e-05,
        "meta_mean_motion_dot": 5.08e-06,
        "meta_mean_motion_ddot": 0,
        "tle_line1": "1 64899U 25156A   25354.19564772  .00000508  00000+0  88540-4 0  9996",
        "tle_line2": "2 64899  98.0018  69.4214 0017492 122.3220 237.9684 14.72068313 21631"
      },
      "geometry": {
        "type": "Point",
        "coordinates": [
          -127.36752956073414,
          -64.77047977946016
        ]
      }
    },
    {
      "type": "Feature",
      "properties": {
        "norad_id": 64900,
        "name": "CO3D 3",
        "group": "resource",
        "lat": -58.4933841220688,
        "lon": -121.2623000165405,
        "alt_km": 513.246073473204,
        "timestamp": "2025-12-20T18:51:31.376034+00:00",
        "meta_object_name": "CO3D 3",
        "meta_object_id": "2025-156B",
        "meta_epoch": "2025-12-20T13:04:13.247328",
        "meta_mean_motion": 15.20203792,
        "meta_eccentricity": 0.00013551,
        "meta_inclination": 97.4346,
        "meta_ra_of_asc_node": 70.8003,
        "meta_arg_of_pericenter": 79.7127,
        "meta_mean_anomaly": 280.4261,
        "meta_ephemeris_type": 0,
        "meta_classification_type": "U",
        "meta_norad_cat_id": 64900,
        "meta_element_set_no": 999,
        "meta_rev_at_epoch": 2239,
        "meta_bstar": 0.000234437,
        "meta_mean_motion_dot": 5.011e-05,
        "meta_mean_motion_ddot": 0,
        "tle_line1": "1 64900U 25156B   25354.54459777  .00005011  00000+0  23444-3 0  9991",
        "tle_line2": "2 64900  97.4346  70.8003 0001355  79.7127 280.4261 15.20203792 22399"
      },
      "geometry": {
        "type": "Point",
        "coordinates": [
          -121.2623000165405,
          -58.4933841220688
        ]
      }
    },
    {
      "type": "Feature",
      "properties": {
        "norad_id": 64901,
        "name": "CO3D 4",
        "group": "resource",
        "lat": -57.88446444563125,
        "lon": -120.96899197371718,
        "alt_km": 511.92250958272325,
        "timestamp": "2025-12-20T18:51:31.376045+00:00",
        "meta_object_name": "CO3D 4",
        "meta_object_id": "2025-156C",
        "meta_epoch": "2025-12-19T14:57:26.055072",
        "meta_mean_motion": 15.20230123,
        "meta_eccentricity": 0.0001264,
        "meta_inclination": 97.434,
        "meta_ra_of_asc_node": 69.8917,
        "meta_arg_of_pericenter": 174.7354,
        "meta_mean_anomaly": 185.3894,
        "meta_ephemeris_type": 0,
        "meta_classification_type": "U",
        "meta_norad_cat_id": 64901,
        "meta_element_set_no": 999,
        "meta_rev_at_epoch": 2225,
        "meta_bstar": 0.00021367,
        "meta_mean_motion_dot": 4.564e-05,
        "meta_mean_motion_ddot": 0,
        "tle_line1": "1 64901U 25156C   25353.62321823  .00004564  00000+0  21367-3 0  9994",
        "tle_line2": "2 64901  97.4340  69.8917 0001264 174.7354 185.3894 15.20230123 22251"
      },
      "geometry": {
        "type": "Point",
        "coordinates": [
          -120.96899197371718,
          -57.88446444563125
        ]
      }
    },
    {
      "type": "Feature",
      "properties": {
        "norad_id": 64902,
        "name": "CO3D 2",
        "group": "resource",
        "lat": 59.84630752715971,
        "lon": 57.94730183103723,
        "alt_km": 499.03981287292663,
        "timestamp": "2025-12-20T18:51:31.376054+00:00",
        "meta_object_name": "CO3D 2",
        "meta_object_id": "2025-156D",
        "meta_epoch": "2025-12-18T23:56:22.431840",
        "meta_mean_motion": 15.20201426,
        "meta_eccentricity": 6.127e-05,
        "meta_inclination": 97.4339,
        "meta_ra_of_asc_node": 69.1735,
        "meta_arg_of_pericenter": 62.3895,
        "meta_mean_anomaly": 297.7402,
        "meta_ephemeris_type": 0,
        "meta_classification_type": "U",
        "meta_norad_cat_id": 64902,
        "meta_element_set_no": 999,
        "meta_rev_at_epoch": 2215,
        "meta_bstar": 2.1688322e-05,
        "meta_mean_motion_dot": 4.02e-06,
        "meta_mean_motion_ddot": 0,
        "tle_line1": "1 64902U 25156D   25352.99748185  .00000402  00000+0  21688-4 0  9992",
        "tle_line2": "2 64902  97.4339  69.1735 0000612  62.3895 297.7402 15.20201426 22155"
      },
      "geometry": {
        "type": "Point",
        "coordinates": [
          57.94730183103723,
          59.84630752715971
        ]
      }
    }
  ]
}